STARLINK-1585           
1 46117U 20057A   25304.91668980  .00044067  00000+0  10859-2 0  9999
2 46117  53.0552 151.9587 0001567  96.1307 301.3183 15.40155775  5848
STARLINK-1593           
1 46119U 20057C   25304.79747735  .00091146  00000+0  23020-2 0  9997
2 46119  53.0539 172.7220 0001294 124.4646 235.6479 15.39074930287938
STARLINK-1601           
1 46120U 20057D   25304.91668980  .00087853  00000+0  18173-2 0  9990
2 46120  53.0542 171.5596 0001238 107.6870 220.8823 15.45076312  5836
STARLINK-1605           
1 46123U 20057G   25304.91668980  .00239827  00000+0  41888-2 0  9992
2 46123  53.0484 117.4686 0012453 159.6026   1.5215 15.49241335  5892
STARLINK-1614           
1 46124U 20057H   25304.91668980  .00239424  00000+0  40836-2 0  9998
2 46124  53.0484 117.2351 0012649 158.5037  79.6913 15.49915181  5895
STARLINK-1621           
1 46127U 20057L   25304.83720869  .00136050  00000+0  32253-2 0  9992
2 46127  53.0503 146.9562 0008546 166.3221 193.8016 15.40747439287037
STARLINK-1622           
1 46128U 20057M   25304.79974573  .00091336  00000+0  28341-2 0  9991
2 46128  53.0339 120.0629 0011140 127.4464 232.7551 15.32590335287414
STARLINK-1623           
1 46129U 20057N   25304.80673205 -.00002756  00000+0 -16620-3 0  9990
2 46129  53.0525 135.1989 0001427  80.3604 279.7546 15.06402328287205
STARLINK-1624           
1 46130U 20057P   25304.91668980  .00144140  00000+0  37415-2 0  9994
2 46130  53.0555 132.0917 0001232 150.0961 167.9127 15.37970979  5849
STARLINK-1625           
1 46131U 20057Q   25304.91668980  .00105240  00000+0  26386-2 0  9998
2 46131  53.0544 152.1802 0001456  98.1894 103.7426 15.39224320  5832
STARLINK-1643           
1 46136U 20057V   25304.91668980  .00420633  00000+0  24096-2 0  9995
2 46136  53.0409 125.5449 0004392 135.3022  41.5728 15.77090110  5954
STARLINK-1596           
1 46141U 20057AA  25304.79291067  .00041056  00000+0  15361-2 0  9998
2 46141  53.0493 116.5084 0009304 152.8173 207.3314 15.26905181287465
STARLINK-1597           
1 46142U 20057AB  25304.79935627  .00002738  00000+0  20257-3 0  9991
2 46142  53.0543 175.2305 0001650  87.6703 272.4475 15.06407415286634
STARLINK-1606           
1 46144U 20057AD  25304.83454184  .00089383  00000+0  27076-2 0  9998
2 46144  53.0583 152.3132 0001756 105.2590 254.8605 15.33420460275218
STARLINK-1608           
1 46146U 20057AF  25304.81040691  .00002607  00000+0  19380-3 0  9996
2 46146  53.0534 175.1807 0001462 100.5648 259.5505 15.06404102286649
STARLINK-1629           
1 46150U 20057AK  25304.91668980  .00178523  00000+0  30940-2 0  9994
2 46150  53.0311 140.1550 0013764 139.5181   9.5422 15.49680958  5941
STARLINK-1642           
1 46154U 20057AP  25304.91668980  .00141736  00000+0  28618-2 0  9993
2 46154  53.0506 148.0204 0012286 114.2915 345.9469 15.45455560  5939
