[{"OBJECT_NAME":"STARLINK-1585","OBJECT_ID":"2020-057A","EPOCH":"2025-10-31T22:00:01.998720","MEAN_MOTION":15.40155775,"ECCENTRICITY":0.0001567,"INCLINATION":53.0552,"RA_OF_ASC_NODE":151.9587,"ARG_OF_PERICENTER":96.1307,"MEAN_ANOMALY":301.3183,"EPHEMERIS_TYPE":0,"CLASSIFICATION_TYPE":"U","NORAD_CAT_ID":46117,"ELEMENT_SET_NO":999,"REV_AT_EPOCH":584,"BSTAR":0.0010859,"MEAN_MOTION_DOT":0.00044067,"MEAN_MOTION_DDOT":0},{"OBJECT_NAME":"STARLINK-1593","OBJECT_ID":"2020-057C","EPOCH":"2025-10-31T19:08:22.043040","MEAN_MOTION":15.3907493,"ECCENTRICITY":0.0001294,"INCLINATION":53.0539,"RA_OF_ASC_NODE":172.722,"ARG_OF_PERICENTER":124.4646,"MEAN_ANOMALY":235.6479,"EPHEMERIS_TYPE":0,"CLASSIFICATION_TYPE":"U","NORAD_CAT_ID":46119,"ELEMENT_SET_NO":999,"REV_AT_EPOCH":28793,"BSTAR":0.002302,"MEAN_MOTION_DOT":0.00091146,"MEAN_MOTION_DDOT":0},{"OBJECT_NAME":"STARLINK-1601","OBJECT_ID":"2020-057D","EPOCH":"2025-10-31T22:00:01.998720","MEAN_MOTION":15.45076312,"ECCENTRICITY":0.0001238,"INCLINATION":53.0542,"RA_OF_ASC_NODE":171.5596,"ARG_OF_PERICENTER":107.687,"MEAN_ANOMALY":220.8823,"EPHEMERIS_TYPE":0,"CLASSIFICATION_TYPE":"U","NORAD_CAT_ID":46120,"ELEMENT_SET_NO":999,"REV_AT_EPOCH":583,"BSTAR":0.0018173,"MEAN_MOTION_DOT":0.00087853,"MEAN_MOTION_DDOT":0},{"OBJECT_NAME":"STARLINK-1605","OBJECT_ID":"2020-057G","EPOCH":"2025-10-31T22:00:01.998720","MEAN_MOTION":15.49241335,"ECCENTRICITY":0.0012453,"INCLINATION":53.0484,"RA_OF_ASC_NODE":117.4686,"ARG_OF_PERICENTER":159.6026,"MEAN_ANOMALY":1.5215,"EPHEMERIS_TYPE":0,"CLASSIFICATION_TYPE":"U","NORAD_CAT_ID":46123,"ELEMENT_SET_NO":999,"REV_AT_EPOCH":589,"BSTAR":0.0041888,"MEAN_MOTION_DOT":0.00239827,"MEAN_MOTION_DDOT":0},{"OBJECT_NAME":"STARLINK-1614","OBJECT_ID":"2020-057H","EPOCH":"2025-10-31T22:00:01.998720","MEAN_MOTION":15.49915181,"ECCENTRICITY":0.0012649,"INCLINATION":53.0484,"RA_OF_ASC_NODE":117.2351,"ARG_OF_PERICENTER":158.5037,"MEAN_ANOMALY":79.6913,"EPHEMERIS_TYPE":0,"CLASSIFICATION_TYPE":"U","NORAD_CAT_ID":46124,"ELEMENT_SET_NO":999,"REV_AT_EPOCH":589,"BSTAR":0.0040836,"MEAN_MOTION_DOT":0.00239424,"MEAN_MOTION_DDOT":0},{"OBJECT_NAME":"STARLINK-1621","OBJECT_ID":"2020-057L","EPOCH":"2025-10-31T20:05:34.830816","MEAN_MOTION":15.40747439,"ECCENTRICITY":0.0008546,"INCLINATION":53.0503,"RA_OF_ASC_NODE":146.9562,"ARG_OF_PERICENTER":166.3221,"MEAN_ANOMALY":193.8016,"EPHEMERIS_TYPE":0,"CLASSIFICATION_TYPE":"U","NORAD_CAT_ID":46127,"ELEMENT_SET_NO":999,"REV_AT_EPOCH":28703,"BSTAR":0.0032253,"MEAN_MOTION_DOT":0.0013605,"MEAN_MOTION_DDOT":0},{"OBJECT_NAME":"STARLINK-1622","OBJECT_ID":"2020-057M","EPOCH":"2025-10-31T19:11:38.031072","MEAN_MOTION":15.32590335,"ECCENTRICITY":0.001114,"INCLINATION":53.0339,"RA_OF_ASC_NODE":120.0629,"ARG_OF_PERICENTER":127.4464,"MEAN_ANOMALY":232.7551,"EPHEMERIS_TYPE":0,"CLASSIFICATION_TYPE":"U","NORAD_CAT_ID":46128,"ELEMENT_SET_NO":999,"REV_AT_EPOCH":28741,"BSTAR":0.0028341,"MEAN_MOTION_DOT":0.00091336,"MEAN_MOTION_DDOT":0},{"OBJECT_NAME":"STARLINK-1623","OBJECT_ID":"2020-057N","EPOCH":"2025-10-31T19:21:41.649120","MEAN_MOTION":15.06402328,"ECCENTRICITY":0.0001427,"INCLINATION":53.0525,"RA_OF_ASC_NODE":135.1989,"ARG_OF_PERICENTER":80.3604,"MEAN_ANOMALY":279.7546,"EPHEMERIS_TYPE":0,"CLASSIFICATION_TYPE":"U","NORAD_CAT_ID":46129,"ELEMENT_SET_NO":999,"REV_AT_EPOCH":28720,"BSTAR":-0.0001662,"MEAN_MOTION_DOT":-2.756e-5,"MEAN_MOTION_DDOT":0},{"OBJECT_NAME":"STARLINK-1624","OBJECT_ID":"2020-057P","EPOCH":"2025-10-31T22:00:01.998720","MEAN_MOTION":15.37970979,"ECCENTRICITY":0.0001232,"INCLINATION":53.0555,"RA_OF_ASC_NODE":132.0917,"ARG_OF_PERICENTER":150.0961,"MEAN_ANOMALY":167.9127,"EPHEMERIS_TYPE":0,"CLASSIFICATION_TYPE":"U","NORAD_CAT_ID":46130,"ELEMENT_SET_NO":999,"REV_AT_EPOCH":584,"BSTAR":0.0037415,"MEAN_MOTION_DOT":0.0014414,"MEAN_MOTION_DDOT":0},{"OBJECT_NAME":"STARLINK-1625","OBJECT_ID":"2020-057Q","EPOCH":"2025-10-31T22:00:01.998720","MEAN_MOTION":15.3922432,"ECCENTRICITY":0.0001456,"INCLINATION":53.0544,"RA_OF_ASC_NODE":152.1802,"ARG_OF_PERICENTER":98.1894,"MEAN_ANOMALY":103.7426,"EPHEMERIS_TYPE":0,"CLASSIFICATION_TYPE":"U","NORAD_CAT_ID":46131,"ELEMENT_SET_NO":999,"REV_AT_EPOCH":583,"BSTAR":0.0026386,"MEAN_MOTION_DOT":0.0010524,"MEAN_MOTION_DDOT":0},{"OBJECT_NAME":"STARLINK-1643","OBJECT_ID":"2020-057V","EPOCH":"2025-10-31T22:00:01.998720","MEAN_MOTION":15.7709011,"ECCENTRICITY":0.0004392,"INCLINATION":53.0409,"RA_OF_ASC_NODE":125.5449,"ARG_OF_PERICENTER":135.3022,"MEAN_ANOMALY":41.5728,"EPHEMERIS_TYPE":0,"CLASSIFICATION_TYPE":"U","NORAD_CAT_ID":46136,"ELEMENT_SET_NO":999,"REV_AT_EPOCH":595,"BSTAR":0.0024096,"MEAN_MOTION_DOT":0.00420633,"MEAN_MOTION_DDOT":0},{"OBJECT_NAME":"STARLINK-1596","OBJECT_ID":"2020-057AA","EPOCH":"2025-10-31T19:01:47.481888","MEAN_MOTION":15.26905181,"ECCENTRICITY":0.0009304,"INCLINATION":53.0493,"RA_OF_ASC_NODE":116.5084,"ARG_OF_PERICENTER":152.8173,"MEAN_ANOMALY":207.3314,"EPHEMERIS_TYPE":0,"CLASSIFICATION_TYPE":"U","NORAD_CAT_ID":46141,"ELEMENT_SET_NO":999,"REV_AT_EPOCH":28746,"BSTAR":0.0015361,"MEAN_MOTION_DOT":0.00041056,"MEAN_MOTION_DDOT":0},{"OBJECT_NAME":"STARLINK-1597","OBJECT_ID":"2020-057AB","EPOCH":"2025-10-31T19:11:04.381728","MEAN_MOTION":15.06407415,"ECCENTRICITY":0.000165,"INCLINATION":53.0543,"RA_OF_ASC_NODE":175.2305,"ARG_OF_PERICENTER":87.6703,"MEAN_ANOMALY":272.4475,"EPHEMERIS_TYPE":0,"CLASSIFICATION_TYPE":"U","NORAD_CAT_ID":46142,"ELEMENT_SET_NO":999,"REV_AT_EPOCH":28663,"BSTAR":0.00020257,"MEAN_MOTION_DOT":2.738e-5,"MEAN_MOTION_DDOT":0},{"OBJECT_NAME":"STARLINK-1606","OBJECT_ID":"2020-057AD","EPOCH":"2025-10-31T20:01:44.414976","MEAN_MOTION":15.3342046,"ECCENTRICITY":0.0001756,"INCLINATION":53.0583,"RA_OF_ASC_NODE":152.3132,"ARG_OF_PERICENTER":105.259,"MEAN_ANOMALY":254.8605,"EPHEMERIS_TYPE":0,"CLASSIFICATION_TYPE":"U","NORAD_CAT_ID":46144,"ELEMENT_SET_NO":999,"REV_AT_EPOCH":27521,"BSTAR":0.0027076,"MEAN_MOTION_DOT":0.00089383,"MEAN_MOTION_DDOT":0},{"OBJECT_NAME":"STARLINK-1608","OBJECT_ID":"2020-057AF","EPOCH":"2025-10-31T19:26:59.157024","MEAN_MOTION":15.06404102,"ECCENTRICITY":0.0001462,"INCLINATION":53.0534,"RA_OF_ASC_NODE":175.1807,"ARG_OF_PERICENTER":100.5648,"MEAN_ANOMALY":259.5505,"EPHEMERIS_TYPE":0,"CLASSIFICATION_TYPE":"U","NORAD_CAT_ID":46146,"ELEMENT_SET_NO":999,"REV_AT_EPOCH":28664,"BSTAR":0.0001938,"MEAN_MOTION_DOT":2.607e-5,"MEAN_MOTION_DDOT":0},{"OBJECT_NAME":"STARLINK-1629","OBJECT_ID":"2020-057AK","EPOCH":"2025-10-31T22:00:01.998720","MEAN_MOTION":15.49680958,"ECCENTRICITY":0.0013764,"INCLINATION":53.0311,"RA_OF_ASC_NODE":140.155,"ARG_OF_PERICENTER":139.5181,"MEAN_ANOMALY":9.5422,"EPHEMERIS_TYPE":0,"CLASSIFICATION_TYPE":"U","NORAD_CAT_ID":46150,"ELEMENT_SET_NO":999,"REV_AT_EPOCH":594,"BSTAR":0.003094,"MEAN_MOTION_DOT":0.00178523,"MEAN_MOTION_DDOT":0},{"OBJECT_NAME":"STARLINK-1642","OBJECT_ID":"2020-057AP","EPOCH":"2025-10-31T22:00:01.998720","MEAN_MOTION":15.4545556,"ECCENTRICITY":0.0012286,"INCLINATION":53.0506,"RA_OF_ASC_NODE":148.0204,"ARG_OF_PERICENTER":114.2915,"MEAN_ANOMALY":345.9469,"EPHEMERIS_TYPE":0,"CLASSIFICATION_TYPE":"U","NORAD_CAT_ID":46154,"ELEMENT_SET_NO":999,"REV_AT_EPOCH":593,"BSTAR":0.0028618,"MEAN_MOTION_DOT":0.00141736,"MEAN_MOTION_DDOT":0}]
